EOSSAT-1                
1 55053U 23001AW  26068.73619225  .00007695  00000+0  24844-3 0  9992
2 55053  97.3357 130.2294 0011263 110.3168 249.9285 15.32339828176689
STARLINK-34423          
1 64460U 25130Y   26068.34044006  .00030096  00000+0  10240-2 0  9990
2 64460  53.1589  89.8674 0001313  68.6661 291.4480 15.30204972 40652
